STARLINK-30595          
1 58111U 23161Q   26068.58512140 -.00000028  00000+0  11196-4 0  9999
2 58111  53.1608 166.1598 0001103  80.0909 280.0216 15.30182626134403
HAWK-11A                
1 62382U 24247F   26068.51231358  .00009457  00000+0  34106-3 0  9991
2 62382  44.9941 114.3328 0005466 327.3713  32.6832 15.28849427 67741
